OBJECT_NAME,OBJECT_ID,EPOCH,MEAN_MOTION,ECCENTRICITY,INCLINATION,RA_OF_ASC_NODE,ARG_OF_PERICENTER,MEAN_ANOMALY,EPHEMERIS_TYPE,CLASSIFICATION_TYPE,NORAD_CAT_ID,ELEMENT_SET_NO,REV_AT_EPOCH,BSTAR,MEAN_MOTION_DOT,MEAN_MOTION_DDOT
IRIDIUM 113,2017-039A,2026-07-06T20:17:14.968032,14.34217150,.0002138,86.3988,313.9615,90.7058,269.4383,0,U,42803,999,47400,.10559E-3,.315E-5,0
NORSAT 2,2017-042D,2026-07-06T22:43:38.601120,15.22324271,.0008895,97.4057,1.0798,350.0061,10.0997,0,U,42828,999,49074,.34218E-3,.7828E-4,0
TECHNOSAT,2017-042E,2026-07-06T22:18:03.310272,15.05073711,.0018092,97.4298,344.8389,30.2814,329.9454,0,U,42829,999,48967,.19609E-3,.2738E-4,0
FLYING LAPTOP,2017-042G,2026-07-07T04:22:02.280576,15.01275179,.0019945,97.4782,342.9572,57.8207,302.4948,0,U,42831,999,48945,.13928E-3,.174E-4,0
WNISAT 1R,2017-042L,2026-07-06T22:43:59.884896,15.01844753,.0011772,97.4837,343.3642,89.6559,270.6015,0,U,42835,999,48947,.12297E-3,.1549E-4,0
LEMUR-2-GREENBERG,2017-042N,2026-07-06T18:02:59.312832,15.31966739,.0007188,97.3832,8.2953,295.9330,64.1170,0,U,42837,999,49138,.44885E-3,.13796E-3,0
LEMUR-2-FURIAUS,2017-042R,2026-07-06T22:55:50.484288,15.30941362,.0006627,97.3782,6.4082,1.9917,358.1349,0,U,42840,999,49123,.41797E-3,.12434E-3,0
CORVUS BC2,2017-042X,2026-07-06T22:10:12.406944,15.06426063,.0013943,97.4090,348.5092,49.1364,311.1070,0,U,42846,999,49003,.21448E-3,.3109E-4,0
CORVUS BC1,2017-042Y,2026-07-07T01:10:34.878720,15.06593079,.0012417,97.4125,349.4567,27.9267,332.2624,0,U,42847,999,49008,.17452E-3,.2529E-4,0
VRSS-2,2017-060A,2026-07-07T04:23:32.248032,14.81229070,.0018077,97.6499,225.0086,38.6519,321.5985,0,U,42954,999,47141,.10277E-3,.752E-5,0
MOHAMMED VI-A,2017-070A,2026-07-07T04:40:34.341888,14.77096527,.000115,97.9546,260.2501,88.3938,271.7404,0,U,43005,999,46693,.72776E-4,.463E-5,0
FENGYUN 3D,2017-072A,2026-07-07T05:35:00.615264,14.19743400,.0001977,99.0142,163.0182,29.6498,330.4789,0,U,43010,999,44783,.36062E-4,.3E-6,0
NOAA 20 (JPSS-1),2017-073A,2026-07-07T03:50:59.807616,14.19515398,.0001083,98.7773,127.4458,130.6340,229.4930,0,U,43013,999,44730,.45301E-4,.51E-6,0
MAKERSAT 0,2017-073D,2026-07-06T15:20:19.727808,15.32782580,.0104976,97.4596,70.3150,202.8118,156.8443,0,U,43016,999,46944,.44083E-3,.16571E-3,0
RADFXSAT (FOX-1B),2017-073E,2026-07-07T01:12:49.095072,15.12990086,.014816,97.4678,54.8599,259.9195,98.5293,0,U,43017,999,46839,.24356E-3,.5556E-4,0
JILIN-1 04,2017-074A,2026-07-07T03:05:57.530976,15.42982919,.0005164,97.4866,298.2818,120.8867,239.2889,0,U,43022,999,47734,.25229E-3,.1103E-3,0
JILIN-1 05,2017-074B,2026-07-07T05:05:19.074048,15.34199002,.0006015,97.4871,294.6423,147.1477,213.0141,0,U,43023,999,47707,.18251E-3,.5962E-4,0
JILIN-1 06,2017-074C,2026-07-07T02:54:35.897184,15.33934988,.0007474,97.4798,291.5336,158.7090,201.4465,0,U,43024,999,47689,.14237E-3,.4595E-4,0
IRIDIUM 116,2017-083C,2026-07-06T21:21:11.054592,14.34218941,.000233,86.3981,313.7641,100.6241,259.5217,0,U,43072,999,44699,.10338E-3,.309E-5,0
IRIDIUM 130,2017-083D,2026-07-06T20:35:31.024608,14.34218303,.0002132,86.3989,314.0546,100.4453,259.6983,0,U,43073,999,44693,.24021E-4,.87E-6,0
LKW-2,2017-084A,2026-07-07T05:15:09.318240,15.26617666,.0003221,97.1182,227.0802,135.5189,224.6309,0,U,43080,999,47474,.16034E-3,.4131E-4,0
SUPERVIEW-1 03,2018-002A,2026-07-07T04:24:55.014912,15.40009555,.0047321,97.3124,272.9993,109.1288,251.5090,0,U,43099,999,47144,.317E-3,.1308E-3,0
CARTOSAT-2F,2018-004A,2026-07-07T03:58:15.381120,15.19229772,.0002098,97.4774,247.6037,153.9853,206.1488,0,U,43111,999,47036,.11934E-3,.2445E-4,0
LKW-3,2018-006A,2026-07-07T04:35:38.302656,15.35637696,.0002269,97.6636,349.5537,212.6001,147.5102,0,U,43146,999,47178,.16681E-3,.5693E-4,0
ASNARO-2,2018-007A,2026-07-07T04:00:44.289792,15.22358796,.0001975,97.3969,194.7821,91.5823,268.5639,0,U,43152,999,47045,.93423E-4,.2086E-4,0
JILIN-1 07,2018-008E,2026-07-07T04:08:37.378176,15.35072158,.0007643,97.1769,207.5712,0.1740,359.9505,0,U,43159,999,46806,.19159E-3,.6447E-4,0
JILIN-1 08,2018-008F,2026-07-07T02:54:57.841920,15.33947068,.0006326,97.1804,206.8158,21.7235,338.4276,0,U,43160,999,46800,.15377E-3,.4975E-4,0
S-NET D,2018-014G,2026-07-07T04:29:50.417376,15.16869594,.0006704,97.5338,92.8533,319.5238,40.5495,0,U,43186,999,46179,.16836E-3,.3248E-4,0
S-NET B,2018-014H,2026-07-06T19:16:55.830144,15.16837136,.0007266,97.5346,92.4588,314.9428,45.1215,0,U,43187,999,46173,.21241E-3,.4112E-4,0
S-NET A,2018-014J,2026-07-06T18:58:06.712608,15.16875158,.0007169,97.5355,92.6586,315.9615,44.1046,0,U,43188,999,46173,.18642E-3,.3604E-4,0
