IRIDIUM 113             
1 42803U 17039A   26187.84531213  .00000315  00000+0  10559-3 0  9999
2 42803  86.3988 313.9615 0002138  90.7058 269.4383 14.34217150474000
NORSAT 2                
1 42828U 17042D   26187.94697455  .00007828  00000+0  34218-3 0  9996
2 42828  97.4057   1.0798 0008895 350.0061  10.0997 15.22324271490747
TECHNOSAT               
1 42829U 17042E   26187.92920498  .00002738  00000+0  19609-3 0  9993
2 42829  97.4298 344.8389 0018092  30.2814 329.9454 15.05073711489673
FLYING LAPTOP           
1 42831U 17042G   26188.18197084  .00001740  00000+0  13928-3 0  9992
2 42831  97.4782 342.9572 0019945  57.8207 302.4948 15.01275179489454
WNISAT 1R               
1 42835U 17042L   26187.94722089  .00001549  00000+0  12297-3 0  9993
2 42835  97.4837 343.3642 0011772  89.6559 270.6015 15.01844753489478
LEMUR-2-GREENBERG       
1 42837U 17042N   26187.75207538  .00013796  00000+0  44885-3 0  9996
2 42837  97.3832   8.2953 0007188 295.9330  64.1170 15.31966739491384
LEMUR-2-FURIAUS         
1 42840U 17042R   26187.95544542  .00012434  00000+0  41797-3 0  9998
2 42840  97.3782   6.4082 0006627   1.9917 358.1349 15.30941362491230
CORVUS BC2              
1 42846U 17042X   26187.92375471  .00003109  00000+0  21448-3 0  9994
2 42846  97.4090 348.5092 0013943  49.1364 311.1070 15.06426063490035
CORVUS BC1              
1 42847U 17042Y   26188.04901480  .00002529  00000+0  17452-3 0  9999
2 42847  97.4125 349.4567 0012417  27.9267 332.2624 15.06593079490089
VRSS-2                  
1 42954U 17060A   26188.18301213  .00000752  00000+0  10277-3 0  9995
2 42954  97.6499 225.0086 0018077  38.6519 321.5985 14.81229070471412
MOHAMMED VI-A           
1 43005U 17070A   26188.19484192  .00000463  00000+0  72776-4 0  9995
2 43005  97.9546 260.2501 0001150  88.3938 271.7404 14.77096527466937
FENGYUN 3D              
1 43010U 17072A   26188.23264601  .00000030  00000+0  36062-4 0  9997
2 43010  99.0142 163.0182 0001977  29.6498 330.4789 14.19743400447831
NOAA 20 (JPSS-1)        
1 43013U 17073A   26188.16041444  .00000051  00000+0  45301-4 0  9990
2 43013  98.7773 127.4458 0001083 130.6340 229.4930 14.19515398447307
MAKERSAT 0              
1 43016U 17073D   26187.63911722  .00016571  00000+0  44083-3 0  9998
2 43016  97.4596  70.3150 0104976 202.8118 156.8443 15.32782580469440
RADFXSAT (FOX-1B)       
1 43017U 17073E   26188.05056823  .00005556  00000+0  24356-3 0  9990
2 43017  97.4678  54.8599 0148160 259.9195  98.5293 15.12990086468395
JILIN-1 04              
1 43022U 17074A   26188.12913809  .00011030  00000+0  25229-3 0  9995
2 43022  97.4866 298.2818 0005164 120.8867 239.2889 15.42982919477345
JILIN-1 05              
1 43023U 17074B   26188.21202632  .00005962  00000+0  18251-3 0  9995
2 43023  97.4871 294.6423 0006015 147.1477 213.0141 15.34199002477074
JILIN-1 06              
1 43024U 17074C   26188.12124881  .00004595  00000+0  14237-3 0  9996
2 43024  97.4798 291.5336 0007474 158.7090 201.4465 15.33934988476899
IRIDIUM 116             
1 43072U 17083C   26187.88971128  .00000309  00000+0  10338-3 0  9992
2 43072  86.3981 313.7641 0002330 100.6241 259.5217 14.34218941446990
IRIDIUM 130             
1 43073U 17083D   26187.85799797  .00000087  00000+0  24021-4 0  9998
2 43073  86.3989 314.0546 0002132 100.4453 259.6983 14.34218303446937
LKW-2                   
1 43080U 17084A   26188.21885785  .00004131  00000+0  16034-3 0  9999
2 43080  97.1182 227.0802 0003221 135.5189 224.6309 15.26617666474744
SUPERVIEW-1 03          
1 43099U 18002A   26188.18397008  .00013080  00000+0  31700-3 0  9992
2 43099  97.3124 272.9993 0047321 109.1288 251.5090 15.40009555471446
CARTOSAT-2F             
1 43111U 18004A   26188.16545580  .00002445  00000+0  11934-3 0  9997
2 43111  97.4774 247.6037 0002098 153.9853 206.1488 15.19229772470366
LKW-3                   
1 43146U 18006A   26188.19141554  .00005693  00000+0  16681-3 0  9995
2 43146  97.6636 349.5537 0002269 212.6001 147.5102 15.35637696471782
ASNARO-2                
1 43152U 18007A   26188.16717928  .00002086  00000+0  93423-4 0  9997
2 43152  97.3969 194.7821 0001975  91.5823 268.5639 15.22358796470459
JILIN-1 07              
1 43159U 18008E   26188.17265484  .00006447  00000+0  19159-3 0  9999
2 43159  97.1769 207.5712 0007643   0.1740 359.9505 15.35072158468066
JILIN-1 08              
1 43160U 18008F   26188.12150280  .00004975  00000+0  15377-3 0  9995
2 43160  97.1804 206.8158 0006326  21.7235 338.4276 15.33947068468009
S-NET D                 
1 43186U 18014G   26188.18738909  .00003248  00000+0  16836-3 0  9999
2 43186  97.5338  92.8533 0006704 319.5238  40.5495 15.16869594461795
S-NET B                 
1 43187U 18014H   26187.80342396  .00004112  00000+0  21241-3 0  9996
2 43187  97.5346  92.4588 0007266 314.9428  45.1215 15.16837136461737
S-NET A                 
1 43188U 18014J   26187.79035547  .00003604  00000+0  18642-3 0  9998
2 43188  97.5355  92.6586 0007169 315.9615  44.1046 15.16875158461736
